[{"OBJECT_NAME":"STARLINK-35609","OBJECT_ID":"2025-236Q","EPOCH":"2026-03-09T13:47:15.758880","MEAN_MOTION":15.30182801,"ECCENTRICITY":0.0001396,"INCLINATION":53.1584,"RA_OF_ASC_NODE":104.64,"ARG_OF_PERICENTER":83.3589,"MEAN_ANOMALY":276.757,"EPHEMERIS_TYPE":0,"CLASSIFICATION_TYPE":"U","NORAD_CAT_ID":66100,"ELEMENT_SET_NO":999,"REV_AT_EPOCH":2286,"BSTAR":0.00095004,"MEAN_MOTION_DOT":0.00027869,"MEAN_MOTION_DDOT":0},{"OBJECT_NAME":"FENGYUN 1C DEB","OBJECT_ID":"1999-025BNP","EPOCH":"2026-03-08T20:32:05.282880","MEAN_MOTION":15.24866573,"ECCENTRICITY":0.00982022,"INCLINATION":98.3915,"RA_OF_ASC_NODE":217.6412,"ARG_OF_PERICENTER":158.7529,"MEAN_ANOMALY":201.7829,"EPHEMERIS_TYPE":0,"CLASSIFICATION_TYPE":"U","NORAD_CAT_ID":31281,"ELEMENT_SET_NO":999,"REV_AT_EPOCH":1008,"BSTAR":0.0025465872,"MEAN_MOTION_DOT":0.00073171,"MEAN_MOTION_DDOT":0}]
